JILIN-1 GAOFEN 3A       
1 44312U 19032C   26068.74542089  .00016264  00000+0  55381-3 0  9993
2 44312  44.9746 183.2861 0002618 111.2900 248.8263 15.30271310372592
STARLINK-34319          
1 64268U 25120N   26068.53918387  .00030327  00000+0  10320-2 0  9994
2 64268  53.1585 117.3485 0001269  80.5476 279.5668 15.30195371 43894
